{"type": "FeatureCollection", "features": [ {"type": "Feature", "properties": {"norad_id": 30858, "name": "FENGYUN 1C DEB", "group": "fengyun-1c-debris", "lat": 28.249041136294966, "lon": 32.24592663995634, "alt_km": 836.0221046627912, "timestamp": "2025-12-05T07:38:19.124630+00:00", "meta": {"OBJECT_NAME": "FENGYUN 1C DEB", "OBJECT_ID": "1999-025AWU", "EPOCH": "2025-12-04T10:05:35.584800", "MEAN_MOTION": 14.17761217, "ECCENTRICITY": 0.0030811, "INCLINATION": 98.8002, "RA_OF_ASC_NODE": 36.1311, "ARG_OF_PERICENTER": 132.9075, "MEAN_ANOMALY": 356.7779, "EPHEMERIS_TYPE": 0, "CLASSIFICATION_TYPE": "U", "NORAD_CAT_ID": 30858, "ELEMENT_SET_NO": 999, "REV_AT_EPOCH": 96862, "BSTAR": 0.00071443, "MEAN_MOTION_DOT": 1.419e-05, "MEAN_MOTION_DDOT": 0}, "tle": {"line1": "1 30858U 99025AWU 25338.42055075  .00001419  00000+0  71443-3 0  9994", "line2": "2 30858  98.8002  36.1311 0030811 132.9075 356.7779 14.17761217968620"}}, "geometry": {"type": "Point", "coordinates": [32.24592663995634, 28.249041136294966]}}, {"type": "Feature", "properties": {"norad_id": 30859, "name": "FENGYUN 1C DEB", "group": "fengyun-1c-debris", "lat": -5.384820628996324, "lon": 29.86906073109513, "alt_km": 721.5493584281658, "timestamp": "2025-12-05T07:38:19.124639+00:00", "meta": {"OBJECT_NAME": "FENGYUN 1C DEB", "OBJECT_ID": "1999-025AWV", "EPOCH": "2025-12-04T15:05:20.476608", "MEAN_MOTION": 14.48807861, "ECCENTRICITY": 0.0031596, "INCLINATION": 98.922, "RA_OF_ASC_NODE": 28.2923, "ARG_OF_PERICENTER": 56.0981, "MEAN_ANOMALY": 304.3209, "EPHEMERIS_TYPE": 0, "CLASSIFICATION_TYPE": "U", "NORAD_CAT_ID": 30859, "ELEMENT_SET_NO": 999, "REV_AT_EPOCH": 96917, "BSTAR": 0.0069867, "MEAN_MOTION_DOT": 0.00026609, "MEAN_MOTION_DDOT": 0}, "tle": {"line1": "1 30859U 99025AWV 25338.62870922  .00026609  00000+0  69867-2 0  9997", "line2": "2 30859  98.9220  28.2923 0031596  56.0981 304.3209 14.48807861969176"}}, "geometry": {"type": "Point", "coordinates": [29.86906073109513, -5.384820628996324]}}, {"type": "Feature", "properties": {"norad_id": 30860, "name": "FENGYUN 1C DEB", "group": "fengyun-1c-debris", "lat": 62.53315779024762, "lon": -109.77886761450945, "alt_km": 801.8174470988406, "timestamp": "2025-12-05T07:38:19.124649+00:00", "meta": {"OBJECT_NAME": "FENGYUN 1C DEB", "OBJECT_ID": "1999-025AWW", "EPOCH": "2025-12-04T15:55:51.028320", "MEAN_MOTION": 14.25399955, "ECCENTRICITY": 0.0039968, "INCLINATION": 98.9061, "RA_OF_ASC_NODE": 52.0003, "ARG_OF_PERICENTER": 209.834, "MEAN_ANOMALY": 150.056, "EPHEMERIS_TYPE": 0, "CLASSIFICATION_TYPE": "U", "NORAD_CAT_ID": 30860, "ELEMENT_SET_NO": 999, "REV_AT_EPOCH": 96401, "BSTAR": 0.0038163, "MEAN_MOTION_DOT": 9.042e-05, "MEAN_MOTION_DDOT": 0}, "tle": {"line1": "1 30860U 99025AWW 25338.66378505  .00009042  00000+0  38163-2 0  9990", "line2": "2 30860  98.9061  52.0003 0039968 209.8340 150.0560 14.25399955964012"}}, "geometry": {"type": "Point", "coordinates": [-109.77886761450945, 62.53315779024762]}}, {"type": "Feature", "properties": {"norad_id": 30862, "name": "FENGYUN 1C DEB", "group": "fengyun-1c-debris", "lat": 9.530024648356973, "lon": -108.77856383903368, "alt_km": 713.6272481787983, "timestamp": "2025-12-05T07:38:19.124659+00:00", "meta": {"OBJECT_NAME": "FENGYUN 1C DEB", "OBJECT_ID": "1999-025AWY", "EPOCH": "2025-12-03T05:03:23.950368", "MEAN_MOTION": 14.42697915, "ECCENTRICITY": 0.00538995, "INCLINATION": 98.9598, "RA_OF_ASC_NODE": 67.4901, "ARG_OF_PERICENTER": 189.9681, "MEAN_ANOMALY": 200.2162, "EPHEMERIS_TYPE": 0, "CLASSIFICATION_TYPE": "U", "NORAD_CAT_ID": 30862, "ELEMENT_SET_NO": 999, "REV_AT_EPOCH": 96582, "BSTAR": 0.0049360153, "MEAN_MOTION_DOT": 0.00016707, "MEAN_MOTION_DDOT": 0}, "tle": {"line1": "1 30862U 99025AWY 25337.21069387  .00016707  00000+0  49360-2 0  9994", "line2": "2 30862  98.9598  67.4901 0053899 189.9681 200.2162 14.42697915965823"}}, "geometry": {"type": "Point", "coordinates": [-108.77856383903368, 9.530024648356973]}}, {"type": "Feature", "properties": {"norad_id": 30863, "name": "FENGYUN 1C DEB", "group": "fengyun-1c-debris", "lat": 78.68808735632378, "lon": 118.71018513936923, "alt_km": 2189.252247337451, "timestamp": "2025-12-05T07:38:19.124670+00:00", "meta": {"OBJECT_NAME": "FENGYUN 1C DEB", "OBJECT_ID": "1999-025AWZ", "EPOCH": "2025-12-01T19:58:05.361600", "MEAN_MOTION": 12.4043832, "ECCENTRICITY": 0.08789042, "INCLINATION": 99.121, "RA_OF_ASC_NODE": 169.4702, "ARG_OF_PERICENTER": 273.3504, "MEAN_ANOMALY": 88.4954, "EPHEMERIS_TYPE": 0, "CLASSIFICATION_TYPE": "U", "NORAD_CAT_ID": 30863, "ELEMENT_SET_NO": 999, "REV_AT_EPOCH": 59605, "BSTAR": 0.0034163512, "MEAN_MOTION_DOT": 1.767e-05, "MEAN_MOTION_DDOT": 0}, "tle": {"line1": "1 30863U 99025AWZ 25335.83200650  .00001767  00000+0  34164-2 0  9997", "line2": "2 30863  99.1210 169.4702 0878904 273.3504  88.4954 12.40438320596053"}}, "geometry": {"type": "Point", "coordinates": [118.71018513936923, 78.68808735632378]}}, {"type": "Feature", "properties": {"norad_id": 30867, "name": "FENGYUN 1C DEB", "group": "fengyun-1c-debris", "lat": 62.503820387260966, "lon": 82.30053441236714, "alt_km": 799.5731996630375, "timestamp": "2025-12-05T07:38:19.124680+00:00", "meta": {"OBJECT_NAME": "FENGYUN 1C DEB", "OBJECT_ID": "1999-025AXD", "EPOCH": "2025-12-03T05:21:09.982944", "MEAN_MOTION": 14.27801601, "ECCENTRICITY": 0.0054785, "INCLINATION": 97.8769, "RA_OF_ASC_NODE": 244.9851, "ARG_OF_PERICENTER": 22.51, "MEAN_ANOMALY": 129.6321, "EPHEMERIS_TYPE": 0, "CLASSIFICATION_TYPE": "U", "NORAD_CAT_ID": 30867, "ELEMENT_SET_NO": 999, "REV_AT_EPOCH": 96401, "BSTAR": 0.0034672, "MEAN_MOTION_DOT": 8.678e-05, "MEAN_MOTION_DDOT": 0}, "tle": {"line1": "1 30867U 99025AXD 25337.22303221  .00008678  00000+0  34672-2 0  9996", "line2": "2 30867  97.8769 244.9851 0054785  22.5100 129.6321 14.27801601964018"}}, "geometry": {"type": "Point", "coordinates": [82.30053441236714, 62.503820387260966]}}, {"type": "Feature", "properties": {"norad_id": 30868, "name": "FENGYUN 1C DEB", "group": "fengyun-1c-debris", "lat": 39.652602366403876, "lon": -148.97918831610158, "alt_km": 946.9673575325842, "timestamp": "2025-12-05T07:38:19.124690+00:00", "meta": {"OBJECT_NAME": "FENGYUN 1C DEB", "OBJECT_ID": "1999-025AXE", "EPOCH": "2025-12-04T10:11:38.158080", "MEAN_MOTION": 14.11113464, "ECCENTRICITY": 0.0134868, "INCLINATION": 98.2639, "RA_OF_ASC_NODE": 217.1164, "ARG_OF_PERICENTER": 237.0355, "MEAN_ANOMALY": 306.2468, "EPHEMERIS_TYPE": 0, "CLASSIFICATION_TYPE": "U", "NORAD_CAT_ID": 30868, "ELEMENT_SET_NO": 999, "REV_AT_EPOCH": 96593, "BSTAR": 0.00030411, "MEAN_MOTION_DOT": 5.56e-06, "MEAN_MOTION_DDOT": 0}, "tle": {"line1": "1 30868U 99025AXE 25338.42474720  .00000556  00000+0  30411-3 0  9998", "line2": "2 30868  98.2639 217.1164 0134868 237.0355 306.2468 14.11113464965938"}}, "geometry": {"type": "Point", "coordinates": [-148.97918831610158, 39.652602366403876]}}, {"type": "Feature", "properties": {"norad_id": 30872, "name": "FENGYUN 1C DEB", "group": "fengyun-1c-debris", "lat": 6.384002645532558, "lon": -147.80661902746036, "alt_km": 778.5973304272165, "timestamp": "2025-12-05T07:38:19.124700+00:00", "meta": {"OBJECT_NAME": "FENGYUN 1C DEB", "OBJECT_ID": "1999-025AXJ", "EPOCH": "2025-12-01T02:52:00.052320", "MEAN_MOTION": 14.39326682, "ECCENTRICITY": 0.0041385, "INCLINATION": 99.1951, "RA_OF_ASC_NODE": 26.6549, "ARG_OF_PERICENTER": 62.9558, "MEAN_ANOMALY": 325.6114, "EPHEMERIS_TYPE": 0, "CLASSIFICATION_TYPE": "U", "NORAD_CAT_ID": 30872, "ELEMENT_SET_NO": 999, "REV_AT_EPOCH": 97569, "BSTAR": 0.0009159011, "MEAN_MOTION_DOT": 2.825e-05, "MEAN_MOTION_DDOT": 0}, "tle": {"line1": "1 30872U 99025AXJ 25335.11944505  .00002825  00000+0  91590-3 0  9995", "line2": "2 30872  99.1951  26.6549 0041385  62.9558 325.6114 14.39326682975696"}}, "geometry": {"type": "Point", "coordinates": [-147.80661902746036, 6.384002645532558]}}, {"type": "Feature", "properties": {"norad_id": 30873, "name": "FENGYUN 1C DEB", "group": "fengyun-1c-debris", "lat": -77.37427403839928, "lon": 22.406136379301437, "alt_km": 768.7183099610029, "timestamp": "2025-12-05T07:38:19.124710+00:00", "meta": {"OBJECT_NAME": "FENGYUN 1C DEB", "OBJECT_ID": "1999-025AXK", "EPOCH": "2025-12-02T19:05:40.608960", "MEAN_MOTION": 14.19120964, "ECCENTRICITY": 0.01080899, "INCLINATION": 98.6116, "RA_OF_ASC_NODE": 337.3821, "ARG_OF_PERICENTER": 317.6858, "MEAN_ANOMALY": 41.6016, "EPHEMERIS_TYPE": 0, "CLASSIFICATION_TYPE": "U", "NORAD_CAT_ID": 30873, "ELEMENT_SET_NO": 999, "REV_AT_EPOCH": 97051, "BSTAR": 0.00029970349, "MEAN_MOTION_DOT": 6.21e-06, "MEAN_MOTION_DDOT": 0}, "tle": {"line1": "1 30873U 99025AXK 25336.79560890  .00000621  00000+0  29970-3 0  9997", "line2": "2 30873  98.6116 337.3821 0108089 317.6858  41.6016 14.19120964970512"}}, "geometry": {"type": "Point", "coordinates": [22.406136379301437, -77.37427403839928]}}, {"type": "Feature", "properties": {"norad_id": 30874, "name": "FENGYUN 1C DEB", "group": "fengyun-1c-debris", "lat": -3.0938246163356355, "lon": -170.2280853092408, "alt_km": 845.7101742219502, "timestamp": "2025-12-05T07:38:19.124720+00:00", "meta": {"OBJECT_NAME": "FENGYUN 1C DEB", "OBJECT_ID": "1999-025AXL", "EPOCH": "2025-12-03T00:47:49.890048", "MEAN_MOTION": 14.19619901, "ECCENTRICITY": 0.00424445, "INCLINATION": 98.4915, "RA_OF_ASC_NODE": 8.0432, "ARG_OF_PERICENTER": 68.3697, "MEAN_ANOMALY": 322.7179, "EPHEMERIS_TYPE": 0, "CLASSIFICATION_TYPE": "U", "NORAD_CAT_ID": 30874, "ELEMENT_SET_NO": 999, "REV_AT_EPOCH": 96883, "BSTAR": 0.00057497792, "MEAN_MOTION_DOT": 1.184e-05, "MEAN_MOTION_DDOT": 0}, "tle": {"line1": "1 30874U 99025AXL 25337.03321632  .00001184  00000+0  57498-3 0  9996", "line2": "2 30874  98.4915   8.0432 0042444  68.3697 322.7179 14.19619901968830"}}, "geometry": {"type": "Point", "coordinates": [-170.2280853092408, -3.0938246163356355]}}]}